[{"OBJECT_NAME":"STARLINK-5887","OBJECT_ID":"2023-058AJ","EPOCH":"2026-03-09T21:26:54.370176","MEAN_MOTION":15.01259494,"ECCENTRICITY":0.00012774,"INCLINATION":97.6068,"RA_OF_ASC_NODE":70.4443,"ARG_OF_PERICENTER":108.5943,"MEAN_ANOMALY":251.542,"EPHEMERIS_TYPE":0,"CLASSIFICATION_TYPE":"U","NORAD_CAT_ID":56349,"ELEMENT_SET_NO":999,"REV_AT_EPOCH":15816,"BSTAR":-8.51777e-6,"MEAN_MOTION_DOT":-1.68e-6,"MEAN_MOTION_DDOT":0},{"OBJECT_NAME":"ICEYE-X53","OBJECT_ID":"2025-135BJ","EPOCH":"2026-03-09T22:54:54.338112","MEAN_MOTION":15.00849861,"ECCENTRICITY":0.00010276,"INCLINATION":97.7425,"RA_OF_ASC_NODE":186.1287,"ARG_OF_PERICENTER":193.9381,"MEAN_ANOMALY":166.1815,"EPHEMERIS_TYPE":0,"CLASSIFICATION_TYPE":"U","NORAD_CAT_ID":64584,"ELEMENT_SET_NO":999,"REV_AT_EPOCH":3919,"BSTAR":0.00050918186,"MEAN_MOTION_DOT":6.416e-5,"MEAN_MOTION_DDOT":0}]
